KUIPER-00053            
1 64513U 25134P   25312.46845870  .00003283  00000+0  46056-3 0  9998
2 64513  51.9034  38.8729 0002014 278.9872  81.0862 14.79825372 22265
KUIPER-00054            
1 64514U 25134Q   25312.50001156 -.00013818  00000+0 -17856-2 0  9997
2 64514  51.8990  33.9841 0004890 263.3978 107.7197 14.79959598  5497
KUIPER-00055            
1 64515U 25134R   25312.48231703  .00027084  00000+0  13949-2 0  9995
2 64515  51.8923  29.0544 0001691  10.4351 349.6661 15.16206164 22401
KUIPER-00056            
1 64516U 25134S   25312.49082878  .00005322  00000+0  72643-3 0  9992
2 64516  51.9052  40.0494 0001553 257.3751 102.7038 14.79944832 22254
KUIPER-00057            
1 64517U 25134T   25312.48276744  .00008266  00000+0  11122-2 0  9993
2 64517  51.9011  47.5847 0008806 238.0179 121.9928 14.79905754 22141
KUIPER-00058            
1 64518U 25134U   25312.48982058  .00012453  00000+0  16553-2 0  9992
2 64518  51.9041  41.4683 0004959 269.1886  90.8508 14.80036192 22232
KUIPER-00059            
1 64519U 25134V   25312.42820971  .00005054  00000+0  70421-3 0  9996
2 64519  51.8995  36.8042 0004030  64.9268 295.2112 14.79157998 22296
KUIPER-00060            
1 64520U 25134W   25312.42592244  .00000851  00000+0  14051-3 0  9994
2 64520  51.9040  37.8416 0001607 322.3643  37.7206 14.79971076 22262
